*******************************************************************************
Ephemeris / WWW_USER Mon Jun 23 11:24:22 2025 Pasadena, USA      / Horizons
*******************************************************************************
Target body name: Bennett (C/1969 Y1)             {source: JPL#2}
Center body name: Solar System Barycenter (0)     {source: DE441}
Center-site name: BODY CENTER
*******************************************************************************
Start time      : A.D. 1970-Mar-01 00:00:00.0000 TDB
Stop  time      : A.D. 1970-Apr-30 00:00:00.0000 TDB
Step-size       : 720 minutes
*******************************************************************************
Center geodetic : 0.0, 0.0, 0.0                   {E-lon(deg),Lat(deg),Alt(km)}
Center cylindric: 0.0, 0.0, 0.0                   {E-lon(deg),Dxy(km),Dz(km)}
Center radii    : (undefined)
Small perturbers: Yes                             {source: SB441-N16}
Output units    : AU-D
Calendar mode   : Mixed Julian/Gregorian
Output type     : GEOMETRIC cartesian states
Output format   : 3 (position, velocity, LT, range, range-rate)
Reference frame : Ecliptic of J2000.0
*******************************************************************************
Initial IAU76/J2000 heliocentric ecliptic osculating elements (au, days, deg.):
  EPOCH=  2440688.5 ! 1970-Apr-12.0000000 (TDB)    RMSW= n.a.                  
   EC= .9962932802768788   QR= .5376201462339973   TP= 2440665.545423009       
   OM= 224.6576831633486   W= 354.1490886174603    IN= 90.03981104585797       
  Equivalent ICRF heliocentric cartesian coordinates (au, au/d):
   X=-2.801884486336390E-01  Y=-5.064351208448292E-01  Z= 4.736474121005587E-01
  VX= 8.832633633387385E-03 VY=-1.991021466024898E-03 VZ= 2.659542503794679E-02
Comet physical (GM= km^3/s^2; RAD= km):                                        
   GM= n.a.                RAD= n.a.                                           
   M1=  4.6      M2=  n.a.     k1=  12.    k2= n.a.     PHCOF= n.a.            
*******************************************************************************
JDTDB
   X     Y     Z
   VX    VY    VZ
   LT    RG    RR
*******************************************************************************
$$SOE
2440646.500000000 = A.D. 1970-Mar-01 00:00:00.0000 TDB 
 X =-2.247259756506685E-01 Y =-2.246441447264323E-01 Z =-6.121451373161265E-01
 VX=-1.166494751171330E-02 VY=-1.149548442939988E-02 VZ= 2.419211937359221E-02
 LT= 3.983384769908336E-03 RG= 6.897016927859425E-01 RR=-1.392671405339682E-02
2440647.000000000 = A.D. 1970-Mar-01 12:00:00.0000 TDB 
 X =-2.305323916053661E-01 Y =-2.303660711634850E-01 Z =-5.999804454059299E-01
 VX=-1.155975420300729E-02 VY=-1.139127020319340E-02 VZ= 2.446709561376105E-02
 LT= 3.943415667356042E-03 RG= 6.827812572062064E-01 RR=-1.375362735863288E-02
2440647.500000000 = A.D. 1970-Mar-02 00:00:00.0000 TDB 
 X =-2.362847495171958E-01 Y =-2.360344458124584E-01 Z =-5.876776090571234E-01
 VX=-1.144867880752676E-02 VY=-1.128124120759249E-02 VZ= 2.474466701039605E-02
 LT= 3.903958677542381E-03 RG= 6.759494911984885E-01 RR=-1.357198599035604E-02
2440648.000000000 = A.D. 1970-Mar-02 12:00:00.0000 TDB 
 X =-2.419800533958890E-01 Y =-2.416463070401408E-01 Z =-5.752353776882977E-01
 VX=-1.133150127226115E-02 VY=-1.116518018979759E-02 VZ= 2.502464189163598E-02
 LT= 3.865038935993499E-03 RG= 6.692107468442313E-01 RR=-1.338149085181140E-02
2440648.500000000 = A.D. 1970-Mar-03 00:00:00.0000 TDB 
 X =-2.476151969049752E-01 Y =-2.471985842765136E-01 Z =-5.626526021901117E-01
 VX=-1.120800042680263E-02 VY=-1.104286881506618E-02 VZ= 2.530680582298629E-02
 LT= 3.826682442279697E-03 RG= 6.625695258294834E-01 RR=-1.318184286918356E-02
2440649.000000000 = A.D. 1970-Mar-03 12:00:00.0000 TDB 
 X =-2.531869630561890E-01 Y =-2.526880977241966E-01 Z =-5.499282466320485E-01
 VX=-1.107795501807861E-02 VY=-1.091408869042100E-02 VZ= 2.559092030954226E-02
 LT= 3.788916057709648E-03 RG= 6.560304790456678E-01 RR=-1.297274457496444E-02
2440649.500000000 = A.D. 1970-Mar-04 00:00:00.0000 TDB 
 X =-2.586920244553522E-01 Y =-2.581115586134443E-01 Z =-5.370614006104996E-01
 VX=-1.094114488277843E-02 VY=-1.077862252438498E-02 VZ= 2.587672153173104E-02
 LT= 3.751767498167246E-03 RG= 6.495984053493216E-01 RR=-1.275390189039007E-02
2440650.000000000 = A.D. 1970-Mar-04 12:00:00.0000 TDB 
 X =-2.641269441703912E-01 Y =-2.634655700724920E-01 Z =-5.240512922162531E-01
 VX=-1.079735226456584E-02 VY=-1.063625542972920E-02 VZ= 2.616391913571761E-02
 LT= 3.715265321502331E-03 RG= 6.432782493788647E-01 RR=-1.252502611629234E-02
2440650.500000000 = A.D. 1970-Mar-05 00:00:00.0000 TDB 
 X =-2.694881772954125E-01 Y =-2.687466286862646E-01 Z =-5.108973015881644E-01
 VX=-1.064636328194948E-02 VY=-1.048677637501337E-02 VZ= 2.645219510252968E-02
 LT= 3.679438908862181E-03 RG= 6.370750983222501E-01 RR=-1.228583613977324E-02
2440651.000000000 = A.D. 1970-Mar-05 12:00:00.0000 TDB 
 X =-2.747720732873039E-01 Y =-2.739511268189648E-01 Z =-4.975989750070182E-01
 VX=-1.048796955107368E-02 VY=-1.032997978910367E-02 VZ= 2.674120272291303E-02
 LT= 3.644318439332822E-03 RG= 6.309941775262424E-01 RR=-1.203606086158511E-02
2440651.500000000 = A.D. 1970-Mar-06 00:00:00.0000 TDB 
 X =-2.799748791529721E-01 Y =-2.790753557776613E-01 Z =-4.841560394693529E-01
 VX=-1.032196996564644E-02 VY=-1.016566732082973E-02 VZ= 2.703056570785189E-02
 LT= 3.609934857249488E-03 RG= 6.250408448363989E-01 RR=-1.177544184592574E-02
2440652.000000000 = A.D. 1970-Mar-06 12:00:00.0000 TDB 
 X =-2.850927435658252E-01 Y =-2.841155098944821E-01 Z =-4.705684176653460E-01
 VX=-1.014817263370375E-02 VY=-9.993649753451232E-03 VZ= 2.731987746748155E-02
 LT= 3.576319831536038E-03 RG= 6.192205835569086E-01 RR=-1.150373619047885E-02
2440652.500000000 = A.D. 1970-Mar-07 00:00:00.0000 TDB 
 X =-2.901217219892232E-01 Y =-2.890676916041199E-01 Z =-4.568362432678462E-01
 VX=-9.966396967888317E-03 VY=-9.813749070617229E-03 VZ= 2.760870059366367E-02
 LT= 3.543505706445971E-03 RG= 6.135389939216622E-01 RR=-1.122071960990591E-02
2440653.000000000 = A.D. 1970-Mar-07 12:00:00.0000 TDB 
 X =-2.950577828820991E-01 Y =-2.939279175908505E-01 Z =-4.429598764214429E-01
 VX=-9.776475922379631E-03 VY=-9.625800667000237E-03 VZ= 2.789656658365175E-02
 LT= 3.511525443104786E-03 RG= 6.080017829726272E-01 RR=-1.092618972060228E-02
2440653.500000000 = A.D. 1970-Mar-08 00:00:00.0000 TDB 
 X =-2.998968150575209E-01 Y =-2.986921260748699E-01 Z =-4.289399193013210E-01
 VX=-9.578258365549800E-03 VY=-9.429655692771053E-03 VZ= 2.818297584388653E-02
 LT= 3.480412551297450E-03 RG= 6.026147527492126E-01 RR=-1.061996950837493E-02
2440654.000000000 = A.D. 1970-Mar-08 12:00:00.0000 TDB 
 X =-3.046346362583892E-01 Y =-3.033561853012324E-01 Z =-4.147772315918752E-01
 VX=-9.371611572855721E-03 VY=-9.225183516569785E-03 VZ= 2.846739801385377E-02
 LT= 3.450201011007398E-03 RG= 5.973837867031685E-01 RR=-1.030191095381370E-02
2440654.500000000 = A.D. 1970-Mar-09 00:00:00.0000 TDB 
 X =-3.092670030054763E-01 Y =-3.079159032857771E-01 Z =-4.004729457150475E-01
 VX=-9.156423819460240E-03 VY=-9.012274286670513E-03 VZ= 2.874927264992808E-02
 LT= 3.420925183297115E-03 RG= 5.923148342680374E-01 RR=-9.971898782594307E-03
2440655.000000000 = A.D. 1970-Mar-09 12:00:00.0000 TDB 
 X =-3.137896217614285E-01 Y =-3.123670388609596E-01 Z =-3.860284816186204E-01
 VX=-8.932607046677811E-03 VY=-8.790841564704801E-03 VZ= 2.902801030801693E-02
 LT= 3.392619710226479E-03 RG= 5.874138935305515E-01 RR=-9.629854299889901E-03
2440655.500000000 = A.D. 1970-Mar-10 00:00:00.0000 TDB 
 X =-3.181981614399906E-01 Y =-3.167053140502986E-01 Z =-3.714455609158325E-01
 VX=-8.700099570678197E-03 VY=-8.560825000717020E-03 VZ= 2.930299406142664E-02
 LT= 3.365319403635014E-03 RG= 5.826869919738780E-01 RR=-9.275739259657001E-03
2440656.000000000 = A.D. 1970-Mar-10 12:00:00.0000 TDB 
 X =-3.224882672724870E-01 Y =-3.209264277831058E-01 Z =-3.567262201503697E-01
 VX=-8.458868796098857E-03 VY=-8.322193012614000E-03 VZ= 2.957358148651836E-02
 LT= 3.339059122768700E-03 RG= 5.781401652893579E-01 RR=-8.909559711039333E-03
2440656.500000000 = A.D. 1970-Mar-11 00:00:00.0000 TDB 
 X =-3.266555760234801E-01 Y =-3.250260709412849E-01 Z =-3.418728229457965E-01
 VX=-8.208913891507909E-03 VY=-8.074945427436031E-03 VZ= 2.983910714325522E-02
 LT= 3.313873640910912E-03 RG= 5.737794342843674E-01 RR=-8.531369755783561E-03
2440657.000000000 = A.D. 1970-Mar-11 12:00:00.0000 TDB 
 X =-3.306957325246314E-01 Y =-3.289999427073426E-01 Z =-3.268880707866709E-01
 VX=-7.950268378237802E-03 VY=-7.819116036525542E-03 VZ= 3.009888557056157E-02
 LT= 3.289797501379375E-03 RG= 5.696107799489655E-01 RR=-8.141275142751677E-03
2440657.500000000 = A.D. 1970-Mar-12 00:00:00.0000 TDB 
 X =-3.346044074702995E-01 Y =-3.328437681575662E-01 Z =-3.117750121707794E-01
 VX=-7.683002579250490E-03 VY=-7.554775011877925E-03 VZ= 3.035221480746322E-02
 LT= 3.266864863474753E-03 RG= 5.656401167827185E-01 RR=-7.739436618724886E-03
2440658.000000000 = A.D. 1970-Mar-12 12:00:00.0000 TDB 
 X =-3.383773163906983E-01 Y =-3.365533170169303E-01 Z =-2.965370498690548E-01
 VX=-7.407225870666456E-03 VY=-7.282031126986255E-03 VZ= 3.059838044028615E-02
 LT= 3.245109339208129E-03 RG= 5.618732645249384E-01 RR=-7.326072949191049E-03
2440658.500000000 = A.D. 1970-Mar-13 00:00:00.0000 TDB 
 X =-3.420102396889753E-01 Y =-3.401244234631912E-01 Z =-2.811779460326143E-01
 VX=-7.123088675709801E-03 VY=-7.001033722662128E-03 VZ= 3.083666016386162E-02
 LT= 3.224563821889662E-03 RG= 5.583159184757303E-01 RR=-6.901463519127110E-03
2440659.000000000 = A.D. 1970-Mar-13 12:00:00.0000 TDB 
 X =-3.454990435980230E-01 Y =-3.435530068374513E-01 Z =-2.657018248957644E-01
 VX=-6.830784139383646E-03 VY=-6.711974356902699E-03 VZ= 3.106632883094353E-02
 LT= 3.205260307923229E-03 RG= 5.549736186406899E-01 RR=-6.465950422420878E-03
